COSMOS 2251 DEB         
1 39552U 93036BUJ 17345.51469073  .00000978  00000-0  19885-3 0  9998
2 39552  74.0360  57.2452 0039071 248.9953 175.7486 14.62081673215791
